CCSDS_OMM_VERS = 2.0
CREATION_DATE  = 
ORIGINATOR     = 

OBJECT_NAME    = SOYUZ-MS 28
OBJECT_ID      = 2025-275A
CENTER_NAME    = EARTH
REF_FRAME      = TEME
TIME_SYSTEM    = UTC
MEAN_ELEMENT_THEORY = SGP/SGP4

EPOCH          = 2025-12-31T05:49:14.584224
MEAN_MOTION    = 15.48966283
ECCENTRICITY   = .00074963
INCLINATION    = 51.6330
RA_OF_ASC_NODE = 50.8452
ARG_OF_PERICENTER = 322.9593
MEAN_ANOMALY   = 37.0877

EPHEMERIS_TYPE = 0
CLASSIFICATION_TYPE = U
NORAD_CAT_ID   = 66664
ELEMENT_SET_NO = 999
REV_AT_EPOCH   = 128
BSTAR          = .274611E-3
MEAN_MOTION_DOT = .147E-3
MEAN_MOTION_DDOT = 0

CCSDS_OMM_VERS = 2.0
CREATION_DATE  = 
ORIGINATOR     = 

OBJECT_NAME    = 1998-067XS
OBJECT_ID      = 1998-067XS
CENTER_NAME    = EARTH
REF_FRAME      = TEME
TIME_SYSTEM    = UTC
MEAN_ELEMENT_THEORY = SGP/SGP4

EPOCH          = 2025-12-30T10:44:23.623296
MEAN_MOTION    = 15.51595401
ECCENTRICITY   = .00025651
INCLINATION    = 51.6323
RA_OF_ASC_NODE = 54.5369
ARG_OF_PERICENTER = 295.8331
MEAN_ANOMALY   = 64.2394

EPHEMERIS_TYPE = 0
CLASSIFICATION_TYPE = U
NORAD_CAT_ID   = 66906
ELEMENT_SET_NO = 999
REV_AT_EPOCH   = 436
BSTAR          = .60697148E-3
MEAN_MOTION_DOT = .36369E-3
MEAN_MOTION_DDOT = 0

CCSDS_OMM_VERS = 2.0
CREATION_DATE  = 
ORIGINATOR     = 

OBJECT_NAME    = 1998-067XT
OBJECT_ID      = 1998-067XT
CENTER_NAME    = EARTH
REF_FRAME      = TEME
TIME_SYSTEM    = UTC
MEAN_ELEMENT_THEORY = SGP/SGP4

EPOCH          = 2025-12-30T13:20:54.129984
MEAN_MOTION    = 15.53880372
ECCENTRICITY   = .0003807
INCLINATION    = 51.6317
RA_OF_ASC_NODE = 53.7632
ARG_OF_PERICENTER = 336.7480
MEAN_ANOMALY   = 23.3337

EPHEMERIS_TYPE = 0
CLASSIFICATION_TYPE = U
NORAD_CAT_ID   = 66907
ELEMENT_SET_NO = 999
REV_AT_EPOCH   = 438
BSTAR          = .14715E-2
MEAN_MOTION_DOT = .97262E-3
MEAN_MOTION_DDOT = 0

CCSDS_OMM_VERS = 2.0
CREATION_DATE  = 
ORIGINATOR     = 

OBJECT_NAME    = 1998-067XU
OBJECT_ID      = 1998-067XU
CENTER_NAME    = EARTH
REF_FRAME      = TEME
TIME_SYSTEM    = UTC
MEAN_ELEMENT_THEORY = SGP/SGP4

EPOCH          = 2025-12-30T10:14:00.271392
MEAN_MOTION    = 15.53820380
ECCENTRICITY   = .0003916
INCLINATION    = 51.6314
RA_OF_ASC_NODE = 54.3958
ARG_OF_PERICENTER = 332.0587
MEAN_ANOMALY   = 28.0193

EPHEMERIS_TYPE = 0
CLASSIFICATION_TYPE = U
NORAD_CAT_ID   = 66908
ELEMENT_SET_NO = 999
REV_AT_EPOCH   = 436
BSTAR          = .13336636E-2
MEAN_MOTION_DOT = .87809E-3
MEAN_MOTION_DDOT = 0

CCSDS_OMM_VERS = 2.0
CREATION_DATE  = 
ORIGINATOR     = 

OBJECT_NAME    = SILVERSAT
OBJECT_ID      = 1998-067XV
CENTER_NAME    = EARTH
REF_FRAME      = TEME
TIME_SYSTEM    = UTC
MEAN_ELEMENT_THEORY = SGP/SGP4

EPOCH          = 2025-12-31T03:08:25.643040
MEAN_MOTION    = 15.54418563
ECCENTRICITY   = .00040432
INCLINATION    = 51.6312
RA_OF_ASC_NODE = 50.8507
ARG_OF_PERICENTER = 344.7752
MEAN_ANOMALY   = 15.3117

EPHEMERIS_TYPE = 0
CLASSIFICATION_TYPE = U
NORAD_CAT_ID   = 66909
ELEMENT_SET_NO = 999
REV_AT_EPOCH   = 447
BSTAR          = .17100464E-2
MEAN_MOTION_DOT = .115628E-2
MEAN_MOTION_DDOT = 0

CCSDS_OMM_VERS = 2.0
CREATION_DATE  = 
ORIGINATOR     = 

OBJECT_NAME    = 1998-067XW
OBJECT_ID      = 1998-067XW
CENTER_NAME    = EARTH
REF_FRAME      = TEME
TIME_SYSTEM    = UTC
MEAN_ELEMENT_THEORY = SGP/SGP4

EPOCH          = 2025-12-30T10:08:13.890336
MEAN_MOTION    = 15.54093584
ECCENTRICITY   = .00035098
INCLINATION    = 51.6315
RA_OF_ASC_NODE = 54.3693
ARG_OF_PERICENTER = 309.8270
MEAN_ANOMALY   = 50.2412

EPHEMERIS_TYPE = 0
CLASSIFICATION_TYPE = U
NORAD_CAT_ID   = 66910
ELEMENT_SET_NO = 999
REV_AT_EPOCH   = 436
BSTAR          = .13614301E-2
MEAN_MOTION_DOT = .90574E-3
MEAN_MOTION_DDOT = 0

CCSDS_OMM_VERS = 2.0
CREATION_DATE  = 
ORIGINATOR     = 

OBJECT_NAME    = 1998-067XX
OBJECT_ID      = 1998-067XX
CENTER_NAME    = EARTH
REF_FRAME      = TEME
TIME_SYSTEM    = UTC
MEAN_ELEMENT_THEORY = SGP/SGP4

EPOCH          = 2025-12-31T07:35:25.261440
MEAN_MOTION    = 15.55019305
ECCENTRICITY   = .00032203
INCLINATION    = 51.6316
RA_OF_ASC_NODE = 49.8389
ARG_OF_PERICENTER = 329.7775
MEAN_ANOMALY   = 30.3030

EPHEMERIS_TYPE = 0
CLASSIFICATION_TYPE = U
NORAD_CAT_ID   = 66911
ELEMENT_SET_NO = 999
REV_AT_EPOCH   = 449
BSTAR          = .16139035E-2
MEAN_MOTION_DOT = .111465E-2
MEAN_MOTION_DDOT = 0

CCSDS_OMM_VERS = 2.0
CREATION_DATE  = 
ORIGINATOR     = 

OBJECT_NAME    = 1998-067XY
OBJECT_ID      = 1998-067XY
CENTER_NAME    = EARTH
REF_FRAME      = TEME
TIME_SYSTEM    = UTC
MEAN_ELEMENT_THEORY = SGP/SGP4

EPOCH          = 2025-12-31T03:25:19.970400
MEAN_MOTION    = 15.53128826
ECCENTRICITY   = .00038124
INCLINATION    = 51.6324
RA_OF_ASC_NODE = 50.9301
ARG_OF_PERICENTER = 329.0552
MEAN_ANOMALY   = 31.0213

EPHEMERIS_TYPE = 0
CLASSIFICATION_TYPE = U
NORAD_CAT_ID   = 66912
ELEMENT_SET_NO = 999
REV_AT_EPOCH   = 446
BSTAR          = .12711897E-2
MEAN_MOTION_DOT = .81525E-3
MEAN_MOTION_DDOT = 0

