SOYUZ-MS 28             
1 66664U 25275A   25365.24252991  .00014700  00000+0  27461-3 0  9998
2 66664  51.6330  50.8452 0007496 322.9593  37.0877 15.48966283  1286
1998-067XS              
1 66906U 98067XS  25364.44749564  .00036369  00000+0  60697-3 0  9997
2 66906  51.6323  54.5369 0002565 295.8331  64.2394 15.51595401  4367
1998-067XT              
1 66907U 98067XT  25364.55618206  .00097262  00000+0  14715-2 0  9996
2 66907  51.6317  53.7632 0003807 336.7480  23.3337 15.53880372  4386
1998-067XU              
1 66908U 98067XU  25364.42639203  .00087809  00000+0  13337-2 0  9998
2 66908  51.6314  54.3958 0003916 332.0587  28.0193 15.53820380  4363
SILVERSAT               
1 66909U 98067XV  25365.13085235  .00115628  00000+0  17100-2 0  9991
2 66909  51.6312  50.8507 0004043 344.7752  15.3117 15.54418563  4473
1998-067XW              
1 66910U 98067XW  25364.42238299  .00090574  00000+0  13614-2 0  9992
2 66910  51.6315  54.3693 0003509 309.8270  50.2412 15.54093584  4362
1998-067XX              
1 66911U 98067XX  25365.31626460  .00111465  00000+0  16139-2 0  9991
2 66911  51.6316  49.8389 0003220 329.7775  30.3030 15.55019305  4495
1998-067XY              
1 66912U 98067XY  25365.14259225  .00081525  00000+0  12712-2 0  9990
2 66912  51.6324  50.9301 0003812 329.0552  31.0213 15.53128826  4460
